[{"OBJECT_NAME":"RISAT-2BR2","OBJECT_ID":"2020-081A","EPOCH":"2026-03-09T12:34:56.452800","MEAN_MOTION":15.01602463,"ECCENTRICITY":0.00109054,"INCLINATION":36.898,"RA_OF_ASC_NODE":95.9121,"ARG_OF_PERICENTER":52.9142,"MEAN_ANOMALY":307.2595,"EPHEMERIS_TYPE":0,"CLASSIFICATION_TYPE":"U","NORAD_CAT_ID":46905,"ELEMENT_SET_NO":999,"REV_AT_EPOCH":29248,"BSTAR":0.00037609291,"MEAN_MOTION_DOT":4.901e-5,"MEAN_MOTION_DDOT":0},{"OBJECT_NAME":"STARLINK-34697","OBJECT_ID":"2025-150B","EPOCH":"2026-03-09T12:29:02.092704","MEAN_MOTION":14.98326239,"ECCENTRICITY":0.00036415,"INCLINATION":70.0018,"RA_OF_ASC_NODE":134.7957,"ARG_OF_PERICENTER":269.2497,"MEAN_ANOMALY":90.8245,"EPHEMERIS_TYPE":0,"CLASSIFICATION_TYPE":"U","NORAD_CAT_ID":64791,"ELEMENT_SET_NO":999,"REV_AT_EPOCH":3649,"BSTAR":0.00024806161,"MEAN_MOTION_DOT":2.868e-5,"MEAN_MOTION_DDOT":0}]
